{
    "links": {
        "self": "http://www.neowsapp.com/rest/v1/neo/3712906?api_key=iIulBulltgU6a56xZRHN4H3l9WmuAYTsLGpBGhQ2"
    },
    "id": "3712906",
    "neo_reference_id": "3712906",
    "name": "(2015 EK)",
    "designation": "2015 EK",
    "nasa_jpl_url": "http://ssd.jpl.nasa.gov/sbdb.cgi?sstr=3712906",
    "absolute_magnitude_h": 26.3,
    "estimated_diameter": {
        "kilometers": {
            "estimated_diameter_min": 0.0146067964,
            "estimated_diameter_max": 0.0326617897
        },
        "meters": {
            "estimated_diameter_min": 14.6067964271,
            "estimated_diameter_max": 32.6617897446
        },
        "miles": {
            "estimated_diameter_min": 0.0090762397,
            "estimated_diameter_max": 0.020295089
        },
        "feet": {
            "estimated_diameter_min": 47.92256199,
            "estimated_diameter_max": 107.1581062656
        }
    },
    "is_potentially_hazardous_asteroid": false,
    "close_approach_data": [
        {
            "close_approach_date": "2015-03-13",
            "close_approach_date_full": "2015-Mar-13 03:59",
            "epoch_date_close_approach": 1426219140000,
            "relative_velocity": {
                "kilometers_per_second": "8.886604507",
                "kilometers_per_hour": "31991.7762253588",
                "miles_per_hour": "19878.445621807"
            },
            "miss_distance": {
                "astronomical": "0.008047881",
                "lunar": "3.130625709",
                "kilometers": "1203945.85561347",
                "miles": "748097.264947086"
            },
            "orbiting_body": "Earth"
        },
        {
            "close_approach_date": "2015-03-13",
            "close_approach_date_full": "2015-Mar-13 09:18",
            "epoch_date_close_approach": 1426238280000,
            "relative_velocity": {
                "kilometers_per_second": "8.1128904204",
                "kilometers_per_hour": "29206.405513571",
                "miles_per_hour": "18147.7245814741"
            },
            "miss_distance": {
                "astronomical": "0.0096274236",
                "lunar": "3.7450677804",
                "kilometers": "1440242.064147732",
                "miles": "894924.9204414216"
            },
            "orbiting_body": "Moon"
        },
        {
            "close_approach_date": "2017-06-29",
            "close_approach_date_full": "2017-Jun-29 20:47",
            "epoch_date_close_approach": 1498769220000,
            "relative_velocity": {
                "kilometers_per_second": "18.4163374398",
                "kilometers_per_hour": "66298.8147832523",
                "miles_per_hour": "41195.5052190714"
            },
            "miss_distance": {
                "astronomical": "0.3407925424",
                "lunar": "132.5682989936",
                "kilometers": "50981838.454924688",
                "miles": "31678645.4575811744"
            },
            "orbiting_body": "Earth"
        }
    ],
    "orbital_data": {
        "orbit_id": "7",
        "orbit_determination_date": "2017-04-06 08:35:14",
        "first_observation_date": "2015-03-10",
        "last_observation_date": "2015-03-11",
        "data_arc_in_days": 1,
        "observations_used": 54,
        "orbit_uncertainty": "7",
        "minimum_orbit_intersection": ".006693",
        "jupiter_tisserand_invariant": "4.181",
        "epoch_osculation": "2459000.5",
        "eccentricity": ".4302790648452872",
        "semi_major_axis": "1.64078972258174",
        "inclination": "4.949989176388786",
        "ascending_node_longitude": "347.0440735531909",
        "orbital_period": "767.6757420972688",
        "perihelion_distance": ".9347922551415108",
        "perihelion_argument": "221.5044127376497",
        "aphelion_distance": "2.34678719002197",
        "perihelion_time": "2458659.505029579025",
        "mean_anomaly": "159.9089076543947",
        "mean_motion": ".4689479949131778",
        "equinox": "J2000",
        "orbit_class": {
            "orbit_class_type": "APO",
            "orbit_class_description": "Near-Earth asteroid orbits which cross the Earth’s orbit similar to that of 1862 Apollo",
            "orbit_class_range": "a (semi-major axis) > 1.0 AU; q (perihelion) < 1.017 AU"
        }
    },
    "is_sentry_object": false
}